STARLINK-37206          
1 68326U 26059F   26090.66668981 -.00006886  00000+0 -31363-4 0  9993
2 68326  53.1597 252.7078 0001824  25.1701 204.8176 15.80874459  2572
